SITRO-AIS-58            
1 67258U 25313L   26025.45991708  .00016274  00000+0  74904-3 0  9996
2 67258  97.4082 102.4233 0017282 141.3265 218.9212 15.20260260  4246
2025-313M               
1 67259U 25313M   26025.45499151  .00020667  00000+0  93983-3 0  9991
2 67259  97.4124 102.4569 0016389 140.1474 220.0968 15.20638908  4242
SITRO-AIS-60            
1 67260U 25313N   26025.45808151  .00011535  00000+0  53215-3 0  9995
2 67260  97.4091 102.4290 0016765 141.5956 218.6476 15.20270847  4247
2025-313P               
1 67261U 25313P   26025.45198380  .00029068  00000+0  13068-2 0  9993
2 67261  97.4124 102.4612 0016019 140.4939 219.7468 15.20966625  4243
2025-313Q               
1 67262U 25313Q   26025.25770567  .00017817  00000+0  81260-3 0  9994
2 67262  97.4093 102.2396 0016275 142.7934 217.4433 15.20570984  4213
DCS-1                   
1 67263U 25313R   26025.45588178  .00016654  00000+0  76185-3 0  9990
2 67263  97.4105 102.4488 0016290 141.1330 219.1080 15.20482284  4247
2025-313S               
1 67264U 25313S   26025.45776379  .00011288  00000+0  52109-3 0  9991
2 67264  97.4176 102.4544 0016416 145.9998 214.2292 15.20259986  4243
SITRO-TD-4              
1 67265U 25313T   26025.45539281  .00016180  00000+0  74002-3 0  9993
2 67265  97.4085 102.4417 0016230 141.9386 218.3000 15.20496034  4242
SITRO-AIS-65            
1 67266U 25313U   26025.45526539  .00014987  00000+0  68567-3 0  9998
2 67266  97.4112 102.4513 0016145 140.7659 219.4750 15.20504763  4249
2025-313V               
1 67267U 25313V   26025.45428574  .00019303  00000+0  87915-3 0  9994
2 67267  97.4095 102.4375 0015311 146.1514 214.0702 15.20615292  4248
ZORKY-2M 7              
1 67268U 25313W   26025.45592475  .00012026  00000+0  55236-3 0  9993
2 67268  97.4095 102.4338 0016343 141.4883 218.7522 15.20418943  4246
2025-313X               
1 67269U 25313X   26025.45319588  .00022086  00000+0  10005-2 0  9997
2 67269  97.4119 102.4566 0016011 140.1689 220.0725 15.20760907  4240
