CCSDS_OMM_VERS = 2.0
CREATION_DATE  = 
ORIGINATOR     = 

OBJECT_NAME    = SITRO-AIS-58
OBJECT_ID      = 2025-313L
CENTER_NAME    = EARTH
REF_FRAME      = TEME
TIME_SYSTEM    = UTC
MEAN_ELEMENT_THEORY = SGP/SGP4

EPOCH          = 2026-01-25T11:02:16.835712
MEAN_MOTION    = 15.20260260
ECCENTRICITY   = .0017282
INCLINATION    = 97.4082
RA_OF_ASC_NODE = 102.4233
ARG_OF_PERICENTER = 141.3265
MEAN_ANOMALY   = 218.9212

EPHEMERIS_TYPE = 0
CLASSIFICATION_TYPE = U
NORAD_CAT_ID   = 67258
ELEMENT_SET_NO = 999
REV_AT_EPOCH   = 424
BSTAR          = .74904E-3
MEAN_MOTION_DOT = .16274E-3
MEAN_MOTION_DDOT = 0

CCSDS_OMM_VERS = 2.0
CREATION_DATE  = 
ORIGINATOR     = 

OBJECT_NAME    = 2025-313M
OBJECT_ID      = 2025-313M
CENTER_NAME    = EARTH
REF_FRAME      = TEME
TIME_SYSTEM    = UTC
MEAN_ELEMENT_THEORY = SGP/SGP4

EPOCH          = 2026-01-25T10:55:11.266464
MEAN_MOTION    = 15.20638908
ECCENTRICITY   = .0016389
INCLINATION    = 97.4124
RA_OF_ASC_NODE = 102.4569
ARG_OF_PERICENTER = 140.1474
MEAN_ANOMALY   = 220.0968

EPHEMERIS_TYPE = 0
CLASSIFICATION_TYPE = U
NORAD_CAT_ID   = 67259
ELEMENT_SET_NO = 999
REV_AT_EPOCH   = 424
BSTAR          = .93983E-3
MEAN_MOTION_DOT = .20667E-3
MEAN_MOTION_DDOT = 0

CCSDS_OMM_VERS = 2.0
CREATION_DATE  = 
ORIGINATOR     = 

OBJECT_NAME    = SITRO-AIS-60
OBJECT_ID      = 2025-313N
CENTER_NAME    = EARTH
REF_FRAME      = TEME
TIME_SYSTEM    = UTC
MEAN_ELEMENT_THEORY = SGP/SGP4

EPOCH          = 2026-01-25T10:59:38.242464
MEAN_MOTION    = 15.20270847
ECCENTRICITY   = .0016765
INCLINATION    = 97.4091
RA_OF_ASC_NODE = 102.4290
ARG_OF_PERICENTER = 141.5956
MEAN_ANOMALY   = 218.6476

EPHEMERIS_TYPE = 0
CLASSIFICATION_TYPE = U
NORAD_CAT_ID   = 67260
ELEMENT_SET_NO = 999
REV_AT_EPOCH   = 424
BSTAR          = .53215E-3
MEAN_MOTION_DOT = .11535E-3
MEAN_MOTION_DDOT = 0

CCSDS_OMM_VERS = 2.0
CREATION_DATE  = 
ORIGINATOR     = 

OBJECT_NAME    = 2025-313P
OBJECT_ID      = 2025-313P
CENTER_NAME    = EARTH
REF_FRAME      = TEME
TIME_SYSTEM    = UTC
MEAN_ELEMENT_THEORY = SGP/SGP4

EPOCH          = 2026-01-25T10:50:51.400320
MEAN_MOTION    = 15.20966625
ECCENTRICITY   = .0016019
INCLINATION    = 97.4124
RA_OF_ASC_NODE = 102.4612
ARG_OF_PERICENTER = 140.4939
MEAN_ANOMALY   = 219.7468

EPHEMERIS_TYPE = 0
CLASSIFICATION_TYPE = U
NORAD_CAT_ID   = 67261
ELEMENT_SET_NO = 999
REV_AT_EPOCH   = 424
BSTAR          = .13068E-2
MEAN_MOTION_DOT = .29068E-3
MEAN_MOTION_DDOT = 0

CCSDS_OMM_VERS = 2.0
CREATION_DATE  = 
ORIGINATOR     = 

OBJECT_NAME    = 2025-313Q
OBJECT_ID      = 2025-313Q
CENTER_NAME    = EARTH
REF_FRAME      = TEME
TIME_SYSTEM    = UTC
MEAN_ELEMENT_THEORY = SGP/SGP4

EPOCH          = 2026-01-25T06:11:05.769888
MEAN_MOTION    = 15.20570984
ECCENTRICITY   = .0016275
INCLINATION    = 97.4093
RA_OF_ASC_NODE = 102.2396
ARG_OF_PERICENTER = 142.7934
MEAN_ANOMALY   = 217.4433

EPHEMERIS_TYPE = 0
CLASSIFICATION_TYPE = U
NORAD_CAT_ID   = 67262
ELEMENT_SET_NO = 999
REV_AT_EPOCH   = 421
BSTAR          = .8126E-3
MEAN_MOTION_DOT = .17817E-3
MEAN_MOTION_DDOT = 0

CCSDS_OMM_VERS = 2.0
CREATION_DATE  = 
ORIGINATOR     = 

OBJECT_NAME    = DCS-1
OBJECT_ID      = 2025-313R
CENTER_NAME    = EARTH
REF_FRAME      = TEME
TIME_SYSTEM    = UTC
MEAN_ELEMENT_THEORY = SGP/SGP4

EPOCH          = 2026-01-25T10:56:28.185792
MEAN_MOTION    = 15.20482284
ECCENTRICITY   = .001629
INCLINATION    = 97.4105
RA_OF_ASC_NODE = 102.4488
ARG_OF_PERICENTER = 141.1330
MEAN_ANOMALY   = 219.1080

EPHEMERIS_TYPE = 0
CLASSIFICATION_TYPE = U
NORAD_CAT_ID   = 67263
ELEMENT_SET_NO = 999
REV_AT_EPOCH   = 424
BSTAR          = .76185E-3
MEAN_MOTION_DOT = .16654E-3
MEAN_MOTION_DDOT = 0

CCSDS_OMM_VERS = 2.0
CREATION_DATE  = 
ORIGINATOR     = 

OBJECT_NAME    = 2025-313S
OBJECT_ID      = 2025-313S
CENTER_NAME    = EARTH
REF_FRAME      = TEME
TIME_SYSTEM    = UTC
MEAN_ELEMENT_THEORY = SGP/SGP4

EPOCH          = 2026-01-25T10:59:10.791456
MEAN_MOTION    = 15.20259986
ECCENTRICITY   = .0016416
INCLINATION    = 97.4176
RA_OF_ASC_NODE = 102.4544
ARG_OF_PERICENTER = 145.9998
MEAN_ANOMALY   = 214.2292

EPHEMERIS_TYPE = 0
CLASSIFICATION_TYPE = U
NORAD_CAT_ID   = 67264
ELEMENT_SET_NO = 999
REV_AT_EPOCH   = 424
BSTAR          = .52109E-3
MEAN_MOTION_DOT = .11288E-3
MEAN_MOTION_DDOT = 0

CCSDS_OMM_VERS = 2.0
CREATION_DATE  = 
ORIGINATOR     = 

OBJECT_NAME    = SITRO-TD-4
OBJECT_ID      = 2025-313T
CENTER_NAME    = EARTH
REF_FRAME      = TEME
TIME_SYSTEM    = UTC
MEAN_ELEMENT_THEORY = SGP/SGP4

EPOCH          = 2026-01-25T10:55:45.938784
MEAN_MOTION    = 15.20496034
ECCENTRICITY   = .001623
INCLINATION    = 97.4085
RA_OF_ASC_NODE = 102.4417
ARG_OF_PERICENTER = 141.9386
MEAN_ANOMALY   = 218.3000

EPHEMERIS_TYPE = 0
CLASSIFICATION_TYPE = U
NORAD_CAT_ID   = 67265
ELEMENT_SET_NO = 999
REV_AT_EPOCH   = 424
BSTAR          = .74002E-3
MEAN_MOTION_DOT = .1618E-3
MEAN_MOTION_DDOT = 0

CCSDS_OMM_VERS = 2.0
CREATION_DATE  = 
ORIGINATOR     = 

OBJECT_NAME    = SITRO-AIS-65
OBJECT_ID      = 2025-313U
CENTER_NAME    = EARTH
REF_FRAME      = TEME
TIME_SYSTEM    = UTC
MEAN_ELEMENT_THEORY = SGP/SGP4

EPOCH          = 2026-01-25T10:55:34.929696
MEAN_MOTION    = 15.20504763
ECCENTRICITY   = .0016145
INCLINATION    = 97.4112
RA_OF_ASC_NODE = 102.4513
ARG_OF_PERICENTER = 140.7659
MEAN_ANOMALY   = 219.4750

EPHEMERIS_TYPE = 0
CLASSIFICATION_TYPE = U
NORAD_CAT_ID   = 67266
ELEMENT_SET_NO = 999
REV_AT_EPOCH   = 424
BSTAR          = .68567E-3
MEAN_MOTION_DOT = .14987E-3
MEAN_MOTION_DDOT = 0

CCSDS_OMM_VERS = 2.0
CREATION_DATE  = 
ORIGINATOR     = 

OBJECT_NAME    = 2025-313V
OBJECT_ID      = 2025-313V
CENTER_NAME    = EARTH
REF_FRAME      = TEME
TIME_SYSTEM    = UTC
MEAN_ELEMENT_THEORY = SGP/SGP4

EPOCH          = 2026-01-25T10:54:10.287936
MEAN_MOTION    = 15.20615292
ECCENTRICITY   = .0015311
INCLINATION    = 97.4095
RA_OF_ASC_NODE = 102.4375
ARG_OF_PERICENTER = 146.1514
MEAN_ANOMALY   = 214.0702

EPHEMERIS_TYPE = 0
CLASSIFICATION_TYPE = U
NORAD_CAT_ID   = 67267
ELEMENT_SET_NO = 999
REV_AT_EPOCH   = 424
BSTAR          = .87915E-3
MEAN_MOTION_DOT = .19303E-3
MEAN_MOTION_DDOT = 0

CCSDS_OMM_VERS = 2.0
CREATION_DATE  = 
ORIGINATOR     = 

OBJECT_NAME    = ZORKY-2M 7
OBJECT_ID      = 2025-313W
CENTER_NAME    = EARTH
REF_FRAME      = TEME
TIME_SYSTEM    = UTC
MEAN_ELEMENT_THEORY = SGP/SGP4

EPOCH          = 2026-01-25T10:56:31.898400
MEAN_MOTION    = 15.20418943
ECCENTRICITY   = .0016343
INCLINATION    = 97.4095
RA_OF_ASC_NODE = 102.4338
ARG_OF_PERICENTER = 141.4883
MEAN_ANOMALY   = 218.7522

EPHEMERIS_TYPE = 0
CLASSIFICATION_TYPE = U
NORAD_CAT_ID   = 67268
ELEMENT_SET_NO = 999
REV_AT_EPOCH   = 424
BSTAR          = .55236E-3
MEAN_MOTION_DOT = .12026E-3
MEAN_MOTION_DDOT = 0

CCSDS_OMM_VERS = 2.0
CREATION_DATE  = 
ORIGINATOR     = 

OBJECT_NAME    = 2025-313X
OBJECT_ID      = 2025-313X
CENTER_NAME    = EARTH
REF_FRAME      = TEME
TIME_SYSTEM    = UTC
MEAN_ELEMENT_THEORY = SGP/SGP4

EPOCH          = 2026-01-25T10:52:36.124032
MEAN_MOTION    = 15.20760907
ECCENTRICITY   = .0016011
INCLINATION    = 97.4119
RA_OF_ASC_NODE = 102.4566
ARG_OF_PERICENTER = 140.1689
MEAN_ANOMALY   = 220.0725

EPHEMERIS_TYPE = 0
CLASSIFICATION_TYPE = U
NORAD_CAT_ID   = 67269
ELEMENT_SET_NO = 999
REV_AT_EPOCH   = 424
BSTAR          = .10005E-2
MEAN_MOTION_DOT = .22086E-3
MEAN_MOTION_DDOT = 0

